[Satellite]
VERSION=1.1
NAME=JUGNU
NICKNAME=JUGNU
TLE1=1 37839U 11058B   17185.74389841  .00000274  00000-0  44081-5 0  9996
TLE2=2 37839  19.9627 344.0271 0019037  17.0115 100.7594 14.12586105296075
